{"type": "FeatureCollection", "features": [ {"type": "Feature", "properties": {"norad_id": 38552, "name": "METEOSAT-10 (MSG-3)", "group": "weather", "lat": 2.8598934869579833, "lon": -160.45853941991442, "alt_km": 35791.04146212057, "timestamp": "2025-12-25T07:00:33.685996+00:00", "meta": {"OBJECT_NAME": "METEOSAT-10 (MSG-3)", "OBJECT_ID": "2012-035B", "EPOCH": "2025-12-24T21:39:36.881280", "MEAN_MOTION": 1.0026661, "ECCENTRICITY": 0.00014543, "INCLINATION": 4.2554, "RA_OF_ASC_NODE": 61.689, "ARG_OF_PERICENTER": 267.49, "MEAN_ANOMALY": 89.6857, "EPHEMERIS_TYPE": 0, "CLASSIFICATION_TYPE": "U", "NORAD_CAT_ID": 38552, "ELEMENT_SET_NO": 999, "REV_AT_EPOCH": 4910, "BSTAR": 0, "MEAN_MOTION_DOT": 1.4e-07, "MEAN_MOTION_DDOT": 0}, "tle": {"line1": "1 38552U 12035B   25358.90251020  .00000014  00000+0  00000+0 0  9999", "line2": "2 38552   4.2554  61.6890 0001454 267.4900  89.6857  1.00266610 49106"}}, "geometry": {"type": "Point", "coordinates": [-160.45853941991442, 2.8598934869579833]}}, {"type": "Feature", "properties": {"norad_id": 38771, "name": "METOP-B", "group": "weather", "lat": -22.597967207345427, "lon": -134.60765314395607, "alt_km": 825.718332783099, "timestamp": "2025-12-25T07:00:33.686008+00:00", "meta": {"OBJECT_NAME": "METOP-B", "OBJECT_ID": "2012-049A", "EPOCH": "2025-12-24T21:36:41.902272", "MEAN_MOTION": 14.21412882, "ECCENTRICITY": 0.00032699, "INCLINATION": 98.6782, "RA_OF_ASC_NODE": 48.6522, "ARG_OF_PERICENTER": 118.785, "MEAN_ANOMALY": 241.3656, "EPHEMERIS_TYPE": 0, "CLASSIFICATION_TYPE": "U", "NORAD_CAT_ID": 38771, "ELEMENT_SET_NO": 999, "REV_AT_EPOCH": 68850, "BSTAR": 8.2446341e-05, "MEAN_MOTION_DOT": 1.37e-06, "MEAN_MOTION_DDOT": 0}, "tle": {"line1": "1 38771U 12049A   25358.90048498  .00000137  00000+0  82446-4 0  9995", "line2": "2 38771  98.6782  48.6522 0003269 118.7850 241.3656 14.21412882688502"}}, "geometry": {"type": "Point", "coordinates": [-134.60765314395607, -22.597967207345427]}}, {"type": "Feature", "properties": {"norad_id": 39216, "name": "INSAT-3D", "group": "weather", "lat": -1.3397840530405722, "lon": -31.253360228857332, "alt_km": 35785.231626550434, "timestamp": "2025-12-25T07:00:33.686021+00:00", "meta": {"OBJECT_NAME": "INSAT-3D", "OBJECT_ID": "2013-038B", "EPOCH": "2025-12-24T18:51:08.017344", "MEAN_MOTION": 1.00274493, "ECCENTRICITY": 0.00018977, "INCLINATION": 1.4741, "RA_OF_ASC_NODE": 84.8619, "ARG_OF_PERICENTER": 156.072, "MEAN_ANOMALY": 264.9423, "EPHEMERIS_TYPE": 0, "CLASSIFICATION_TYPE": "U", "NORAD_CAT_ID": 39216, "ELEMENT_SET_NO": 999, "REV_AT_EPOCH": 4533, "BSTAR": 0, "MEAN_MOTION_DOT": -3.18e-06, "MEAN_MOTION_DDOT": 0}, "tle": {"line1": "1 39216U 13038B   25358.78550946 -.00000318  00000+0  00000+0 0  9994", "line2": "2 39216   1.4741  84.8619 0001897 156.0720 264.9423  1.00274493 45337"}}, "geometry": {"type": "Point", "coordinates": [-31.253360228857332, -1.3397840530405722]}}, {"type": "Feature", "properties": {"norad_id": 39260, "name": "FENGYUN 3C", "group": "weather", "lat": -11.796364003557692, "lon": 154.5743048882331, "alt_km": 835.0798619289853, "timestamp": "2025-12-25T07:00:33.686032+00:00", "meta": {"OBJECT_NAME": "FENGYUN 3C", "OBJECT_ID": "2013-052A", "EPOCH": "2025-12-24T23:19:18.861312", "MEAN_MOTION": 14.15699972, "ECCENTRICITY": 0.00149631, "INCLINATION": 98.4778, "RA_OF_ASC_NODE": 336.0546, "ARG_OF_PERICENTER": 160.7762, "MEAN_ANOMALY": 199.398, "EPHEMERIS_TYPE": 0, "CLASSIFICATION_TYPE": "U", "NORAD_CAT_ID": 39260, "ELEMENT_SET_NO": 999, "REV_AT_EPOCH": 63391, "BSTAR": 8.6714195e-05, "MEAN_MOTION_DOT": 1.29e-06, "MEAN_MOTION_DDOT": 0}, "tle": {"line1": "1 39260U 13052A   25358.97174608  .00000129  00000+0  86714-4 0  9997", "line2": "2 39260  98.4778 336.0546 0014963 160.7762 199.3980 14.15699972633918"}}, "geometry": {"type": "Point", "coordinates": [154.5743048882331, -11.796364003557692]}}, {"type": "Feature", "properties": {"norad_id": 40069, "name": "METEOR-M 2", "group": "weather", "lat": 68.14528609964349, "lon": -45.4735314556275, "alt_km": 814.7784453608365, "timestamp": "2025-12-25T07:00:33.686043+00:00", "meta": {"OBJECT_NAME": "METEOR-M 2", "OBJECT_ID": "2014-037A", "EPOCH": "2025-12-24T22:14:05.053632", "MEAN_MOTION": 14.21391179, "ECCENTRICITY": 0.00056447, "INCLINATION": 98.4917, "RA_OF_ASC_NODE": 336.0441, "ARG_OF_PERICENTER": 171.9653, "MEAN_ANOMALY": 188.1617, "EPHEMERIS_TYPE": 0, "CLASSIFICATION_TYPE": "U", "NORAD_CAT_ID": 40069, "ELEMENT_SET_NO": 999, "REV_AT_EPOCH": 59456, "BSTAR": 0.00012277751, "MEAN_MOTION_DOT": 2.26e-06, "MEAN_MOTION_DDOT": 0}, "tle": {"line1": "1 40069U 14037A   25358.92644738  .00000226  00000+0  12278-3 0  9992", "line2": "2 40069  98.4917 336.0441 0005644 171.9653 188.1617 14.21391179594560"}}, "geometry": {"type": "Point", "coordinates": [-45.4735314556275, 68.14528609964349]}}, {"type": "Feature", "properties": {"norad_id": 40267, "name": "HIMAWARI-8", "group": "weather", "lat": 0.021400150573268096, "lon": -20.13778629750766, "alt_km": 35783.070492810904, "timestamp": "2025-12-25T07:00:33.686055+00:00", "meta": {"OBJECT_NAME": "HIMAWARI-8", "OBJECT_ID": "2014-060A", "EPOCH": "2025-12-24T18:08:34.455840", "MEAN_MOTION": 1.00271452, "ECCENTRICITY": 9.157e-05, "INCLINATION": 0.0435, "RA_OF_ASC_NODE": 201.9035, "ARG_OF_PERICENTER": 102.9917, "MEAN_ANOMALY": 201.4431, "EPHEMERIS_TYPE": 0, "CLASSIFICATION_TYPE": "U", "NORAD_CAT_ID": 40267, "ELEMENT_SET_NO": 999, "REV_AT_EPOCH": 4101, "BSTAR": 0, "MEAN_MOTION_DOT": -2.54e-06, "MEAN_MOTION_DDOT": 0}, "tle": {"line1": "1 40267U 14060A   25358.75595435 -.00000254  00000+0  00000+0 0  9996", "line2": "2 40267   0.0435 201.9035 0000915 102.9917 201.4431  1.00271452 41010"}}, "geometry": {"type": "Point", "coordinates": [-20.13778629750766, 0.021400150573268096]}}, {"type": "Feature", "properties": {"norad_id": 40367, "name": "FENGYUN 2G", "group": "weather", "lat": -3.594933927727272, "lon": -61.670144223551596, "alt_km": 35778.81549142204, "timestamp": "2025-12-25T07:00:33.686067+00:00", "meta": {"OBJECT_NAME": "FENGYUN 2G", "OBJECT_ID": "2014-090A", "EPOCH": "2025-12-24T18:42:23.852736", "MEAN_MOTION": 1.00282174, "ECCENTRICITY": 0.0001828, "INCLINATION": 5.1959, "RA_OF_ASC_NODE": 74.9486, "ARG_OF_PERICENTER": 172.5748, "MEAN_ANOMALY": 225.8449, "EPHEMERIS_TYPE": 0, "CLASSIFICATION_TYPE": "U", "NORAD_CAT_ID": 40367, "ELEMENT_SET_NO": 999, "REV_AT_EPOCH": 4025, "BSTAR": 0, "MEAN_MOTION_DOT": -2.82e-06, "MEAN_MOTION_DDOT": 0}, "tle": {"line1": "1 40367U 14090A   25358.77944274 -.00000282  00000+0  00000+0 0  9992", "line2": "2 40367   5.1959  74.9486 0001828 172.5748 225.8449  1.00282174 40252"}}, "geometry": {"type": "Point", "coordinates": [-61.670144223551596, -3.594933927727272]}}, {"type": "Feature", "properties": {"norad_id": 40732, "name": "METEOSAT-11 (MSG-4)", "group": "weather", "lat": 1.9045659219310362, "lon": -151.5923412912165, "alt_km": 35782.936003293544, "timestamp": "2025-12-25T07:00:33.686079+00:00", "meta": {"OBJECT_NAME": "METEOSAT-11 (MSG-4)", "OBJECT_ID": "2015-034A", "EPOCH": "2025-12-24T21:42:14.130144", "MEAN_MOTION": 1.00271301, "ECCENTRICITY": 7.159e-05, "INCLINATION": 2.7669, "RA_OF_ASC_NODE": 71.9683, "ARG_OF_PERICENTER": 137.0456, "MEAN_ANOMALY": 219.4009, "EPHEMERIS_TYPE": 0, "CLASSIFICATION_TYPE": "U", "NORAD_CAT_ID": 40732, "ELEMENT_SET_NO": 999, "REV_AT_EPOCH": 546, "BSTAR": 0, "MEAN_MOTION_DOT": 8.1e-07, "MEAN_MOTION_DDOT": 0}, "tle": {"line1": "1 40732U 15034A   25358.90433021  .00000081  00000+0  00000+0 0  9991", "line2": "2 40732   2.7669  71.9683 0000715 137.0456 219.4009  1.00271301  5466"}}, "geometry": {"type": "Point", "coordinates": [-151.5923412912165, 1.9045659219310362]}}, {"type": "Feature", "properties": {"norad_id": 41105, "name": "ELEKTRO-L 2", "group": "weather", "lat": 5.805564533872611, "lon": -175.19555009864197, "alt_km": 35786.859753272765, "timestamp": "2025-12-25T07:00:33.686092+00:00", "meta": {"OBJECT_NAME": "ELEKTRO-L 2", "OBJECT_ID": "2015-074A", "EPOCH": "2025-12-24T23:18:12.437856", "MEAN_MOTION": 1.0027204, "ECCENTRICITY": 0.00035404, "INCLINATION": 6.2545, "RA_OF_ASC_NODE": 72.6824, "ARG_OF_PERICENTER": 208.1447, "MEAN_ANOMALY": 147.994, "EPHEMERIS_TYPE": 0, "CLASSIFICATION_TYPE": "U", "NORAD_CAT_ID": 41105, "ELEMENT_SET_NO": 999, "REV_AT_EPOCH": 3675, "BSTAR": 0, "MEAN_MOTION_DOT": -9.8e-07, "MEAN_MOTION_DDOT": 0}, "tle": {"line1": "1 41105U 15074A   25358.97097729 -.00000098  00000+0  00000+0 0  9997", "line2": "2 41105   6.2545  72.6824 0003540 208.1447 147.9940  1.00272040 36753"}}, "geometry": {"type": "Point", "coordinates": [-175.19555009864197, 5.805564533872611]}}, {"type": "Feature", "properties": {"norad_id": 41752, "name": "INSAT-3DR", "group": "weather", "lat": -0.03404950827878938, "lon": -86.81952164882345, "alt_km": 35725.81469781188, "timestamp": "2025-12-25T07:00:33.686105+00:00", "meta": {"OBJECT_NAME": "INSAT-3DR", "OBJECT_ID": "2016-054A", "EPOCH": "2025-12-24T15:09:51.705216", "MEAN_MOTION": 1.00271379, "ECCENTRICITY": 0.00142635, "INCLINATION": 0.1198, "RA_OF_ASC_NODE": 86.2568, "ARG_OF_PERICENTER": 185.6475, "MEAN_ANOMALY": 122.9543, "EPHEMERIS_TYPE": 0, "CLASSIFICATION_TYPE": "U", "NORAD_CAT_ID": 41752, "ELEMENT_SET_NO": 999, "REV_AT_EPOCH": 3406, "BSTAR": 0, "MEAN_MOTION_DOT": -5.6e-07, "MEAN_MOTION_DDOT": 0}, "tle": {"line1": "1 41752U 16054A   25358.63184844 -.00000056  00000+0  00000+0 0  9996", "line2": "2 41752   0.1198  86.2568 0014263 185.6475 122.9543  1.00271379 34066"}}, "geometry": {"type": "Point", "coordinates": [-86.81952164882345, -0.03404950827878938]}}]}